{
  "type": "FeatureCollection",
  "features": [
    {
      "type": "Feature",
      "properties": {
        "norad_id": 66645,
        "name": "SHENZHOU-22",
        "group": "last-30-days",
        "lat": -19.166486655364125,
        "lon": -60.347410032894146,
        "alt_km": 394.5890519458271,
        "timestamp": "2025-12-21T14:40:46.632800+00:00",
        "meta_object_name": "SHENZHOU-22",
        "meta_object_id": "2025-272A",
        "meta_epoch": "2025-12-21T05:35:06.684000",
        "meta_mean_motion": 15.59524435,
        "meta_eccentricity": 0.00077499,
        "meta_inclination": 41.4687,
        "meta_ra_of_asc_node": 325.1329,
        "meta_arg_of_pericenter": 105.4926,
        "meta_mean_anomaly": 254.6769,
        "meta_ephemeris_type": 0,
        "meta_classification_type": "U",
        "meta_norad_cat_id": 66645,
        "meta_element_set_no": 999,
        "meta_rev_at_epoch": 26519,
        "meta_bstar": 0.00019872404,
        "meta_mean_motion_dot": 0.00015946,
        "meta_mean_motion_ddot": 0,
        "tle_line1": "1 66645U 25272A   25355.23271625  .00015946  00000+0  19872-3 0  9997",
        "tle_line2": "2 66645  41.4687 325.1329 0007749 105.4926 254.6769 15.59524435265193"
      },
      "geometry": {
        "type": "Point",
        "coordinates": [
          -60.347410032894146,
          -19.166486655364125
        ]
      }
    },
    {
      "type": "Feature",
      "properties": {
        "norad_id": 66647,
        "name": "COSMOS 2597 (RODNIK-S 22)",
        "group": "last-30-days",
        "lat": 23.594812527612806,
        "lon": 97.64166308349397,
        "alt_km": 1499.5994282979345,
        "timestamp": "2025-12-21T14:40:46.632813+00:00",
        "meta_object_name": "COSMOS 2597 (RODNIK-S 22)",
        "meta_object_id": "2025-273A",
        "meta_epoch": "2025-12-21T04:10:26.656032",
        "meta_mean_motion": 12.41952065,
        "meta_eccentricity": 0.00076169,
        "meta_inclination": 82.4994,
        "meta_ra_of_asc_node": 281.2119,
        "meta_arg_of_pericenter": 266.5954,
        "meta_mean_anomaly": 93.4254,
        "meta_ephemeris_type": 0,
        "meta_classification_type": "U",
        "meta_norad_cat_id": 66647,
        "meta_element_set_no": 999,
        "meta_rev_at_epoch": 318,
        "meta_bstar": 0.00012603389,
        "meta_mean_motion_dot": 2.7e-07,
        "meta_mean_motion_ddot": 0,
        "tle_line1": "1 66647U 25273A   25355.17391963  .00000027  00000+0  12603-3 0  9990",
        "tle_line2": "2 66647  82.4994 281.2119 0007616 266.5954  93.4254 12.41952065  3182"
      },
      "geometry": {
        "type": "Point",
        "coordinates": [
          97.64166308349397,
          23.594812527612806
        ]
      }
    },
    {
      "type": "Feature",
      "properties": {
        "norad_id": 66648,
        "name": "COSMOS 2598 (RODNIK-S 23)",
        "group": "last-30-days",
        "lat": -52.22193842691345,
        "lon": 110.71093389356282,
        "alt_km": 1493.692910314212,
        "timestamp": "2025-12-21T14:40:46.632823+00:00",
        "meta_object_name": "COSMOS 2598 (RODNIK-S 23)",
        "meta_object_id": "2025-273B",
        "meta_epoch": "2025-12-21T05:42:19.965312",
        "meta_mean_motion": 12.43233571,
        "meta_eccentricity": 0.00081093,
        "meta_inclination": 82.5032,
        "meta_ra_of_asc_node": 281.1628,
        "meta_arg_of_pericenter": 216.5304,
        "meta_mean_anomaly": 143.5224,
        "meta_ephemeris_type": 0,
        "meta_classification_type": "U",
        "meta_norad_cat_id": 66648,
        "meta_element_set_no": 999,
        "meta_rev_at_epoch": 319,
        "meta_bstar": 0.00021528098,
        "meta_mean_motion_dot": 4e-07,
        "meta_mean_motion_ddot": 0,
        "tle_line1": "1 66648U 25273B   25355.23773108  .00000040  00000+0  21528-3 0  9994",
        "tle_line2": "2 66648  82.5032 281.1628 0008109 216.5304 143.5224 12.43233571  3194"
      },
      "geometry": {
        "type": "Point",
        "coordinates": [
          110.71093389356282,
          -52.22193842691345
        ]
      }
    },
    {
      "type": "Feature",
      "properties": {
        "norad_id": 66649,
        "name": "COSMOS 2599 (RODNIK-S 24)",
        "group": "last-30-days",
        "lat": 66.84410041079478,
        "lon": 83.04488525211562,
        "alt_km": 1499.2202138192824,
        "timestamp": "2025-12-21T14:40:46.632834+00:00",
        "meta_object_name": "COSMOS 2599 (RODNIK-S 24)",
        "meta_object_id": "2025-273C",
        "meta_epoch": "2025-12-21T06:20:22.369056",
        "meta_mean_motion": 12.41151016,
        "meta_eccentricity": 0.00062566,
        "meta_inclination": 82.505,
        "meta_ra_of_asc_node": 281.1855,
        "meta_arg_of_pericenter": 257.5715,
        "meta_mean_anomaly": 102.4664,
        "meta_ephemeris_type": 0,
        "meta_classification_type": "U",
        "meta_norad_cat_id": 66649,
        "meta_element_set_no": 999,
        "meta_rev_at_epoch": 319,
        "meta_bstar": 0.00012527522,
        "meta_mean_motion_dot": 2.7e-07,
        "meta_mean_motion_ddot": 0,
        "tle_line1": "1 66649U 25273C   25355.26414779  .00000027  00000+0  12528-3 0  9999",
        "tle_line2": "2 66649  82.5050 281.1855 0006256 257.5715 102.4664 12.41151016  3192"
      },
      "geometry": {
        "type": "Point",
        "coordinates": [
          83.04488525211562,
          66.84410041079478
        ]
      }
    },
    {
      "type": "Feature",
      "properties": {
        "norad_id": 66650,
        "name": "BEE-1000",
        "group": "last-30-days",
        "lat": 24.61354547067842,
        "lon": -80.93581180767504,
        "alt_km": 599.36607851199,
        "timestamp": "2025-12-21T14:40:46.632844+00:00",
        "meta_object_name": "BEE-1000",
        "meta_object_id": "2025-274A",
        "meta_epoch": "2025-12-21T01:41:20.474304",
        "meta_mean_motion": 14.91686308,
        "meta_eccentricity": 0.00107984,
        "meta_inclination": 97.7403,
        "meta_ra_of_asc_node": 282.1053,
        "meta_arg_of_pericenter": 220.4732,
        "meta_mean_anomaly": 139.5685,
        "meta_ephemeris_type": 0,
        "meta_classification_type": "U",
        "meta_norad_cat_id": 66650,
        "meta_element_set_no": 999,
        "meta_rev_at_epoch": 364,
        "meta_bstar": 0.00011424389,
        "meta_mean_motion_dot": 1.094e-05,
        "meta_mean_motion_ddot": 0,
        "tle_line1": "1 66650U 25274A   25355.07037586  .00001094  00000+0  11424-3 0  9997",
        "tle_line2": "2 66650  97.7403 282.1053 0010798 220.4732 139.5685 14.91686308  3647"
      },
      "geometry": {
        "type": "Point",
        "coordinates": [
          -80.93581180767504,
          24.61354547067842
        ]
      }
    },
    {
      "type": "Feature",
      "properties": {
        "norad_id": 66651,
        "name": "2025-274B",
        "group": "last-30-days",
        "lat": 34.34296262256543,
        "lon": -82.69285024627249,
        "alt_km": 597.6941727239418,
        "timestamp": "2025-12-21T14:40:46.632863+00:00",
        "meta_object_name": "2025-274B",
        "meta_object_id": "2025-274B",
        "meta_epoch": "2025-12-21T01:38:46.890528",
        "meta_mean_motion": 14.91849963,
        "meta_eccentricity": 0.00110811,
        "meta_inclination": 97.7398,
        "meta_ra_of_asc_node": 282.1059,
        "meta_arg_of_pericenter": 219.3303,
        "meta_mean_anomaly": 140.7112,
        "meta_ephemeris_type": 0,
        "meta_classification_type": "U",
        "meta_norad_cat_id": 66651,
        "meta_element_set_no": 999,
        "meta_rev_at_epoch": 364,
        "meta_bstar": 0.00023920244,
        "meta_mean_motion_dot": 2.362e-05,
        "meta_mean_motion_ddot": 0,
        "tle_line1": "1 66651U 25274B   25355.06859827  .00002362  00000+0  23920-3 0  9990",
        "tle_line2": "2 66651  97.7398 282.1059 0011081 219.3303 140.7112 14.91849963  3641"
      },
      "geometry": {
        "type": "Point",
        "coordinates": [
          -82.69285024627249,
          34.34296262256543
        ]
      }
    },
    {
      "type": "Feature",
      "properties": {
        "norad_id": 66652,
        "name": "2025-274C",
        "group": "last-30-days",
        "lat": 44.953061044636314,
        "lon": -85.1591280014544,
        "alt_km": 595.4588730406003,
        "timestamp": "2025-12-21T14:40:46.632873+00:00",
        "meta_object_name": "2025-274C",
        "meta_object_id": "2025-274C",
        "meta_epoch": "2025-12-21T01:35:56.295456",
        "meta_mean_motion": 14.91942595,
        "meta_eccentricity": 0.00106239,
        "meta_inclination": 97.7403,
        "meta_ra_of_asc_node": 282.11,
        "meta_arg_of_pericenter": 226.191,
        "meta_mean_anomaly": 133.8432,
        "meta_ephemeris_type": 0,
        "meta_classification_type": "U",
        "meta_norad_cat_id": 66652,
        "meta_element_set_no": 999,
        "meta_rev_at_epoch": 364,
        "meta_bstar": 0.00019537028,
        "meta_mean_motion_dot": 1.923e-05,
        "meta_mean_motion_ddot": 0,
        "tle_line1": "1 66652U 25274C   25355.06662379  .00001923  00000+0  19537-3 0  9996",
        "tle_line2": "2 66652  97.7403 282.1100 0010623 226.1910 133.8432 14.91942595  3640"
      },
      "geometry": {
        "type": "Point",
        "coordinates": [
          -85.1591280014544,
          44.953061044636314
        ]
      }
    }
  ]
}